{
  "type": "FeatureCollection",
  "name": "MozzieSpot AI Demo Detections",
  "features": [
    {
      "type": "Feature",
      "geometry": { "type": "Point", "coordinates": [78.4747, 17.4241] },
      "properties": {
        "id": "MS-001",
        "name": "Urban Drainage Pocket 17",
        "confidence": 0.92,
        "water_persistence": 0.96,
        "days_persistent": 18,
        "ndwi": 0.64,
        "population_density": 0.88,
        "temperature": 31.2,
        "building_distance": 0.12,
        "vegetation": 0.42
      }
    },
    {
      "type": "Feature",
      "geometry": { "type": "Point", "coordinates": [78.4632, 17.4098] },
      "properties": {
        "id": "MS-002",
        "name": "Low-Lying Construction Zone",
        "confidence": 0.87,
        "water_persistence": 0.78,
        "days_persistent": 11,
        "ndwi": 0.51,
        "population_density": 0.71,
        "temperature": 30.4,
        "building_distance": 0.22,
        "vegetation": 0.31
      }
    },
    {
      "type": "Feature",
      "geometry": { "type": "Point", "coordinates": [78.4919, 17.4387] },
      "properties": {
        "id": "MS-003",
        "name": "Peri-Urban Pond Cluster",
        "confidence": 0.84,
        "water_persistence": 0.69,
        "days_persistent": 9,
        "ndwi": 0.48,
        "population_density": 0.46,
        "temperature": 29.8,
        "building_distance": 0.49,
        "vegetation": 0.74
      }
    },
    {
      "type": "Feature",
      "geometry": { "type": "Point", "coordinates": [78.4474, 17.4325] },
      "properties": {
        "id": "MS-004",
        "name": "Rooftop Tank Belt",
        "confidence": 0.76,
        "water_persistence": 0.57,
        "days_persistent": 7,
        "ndwi": 0.37,
        "population_density": 0.82,
        "temperature": 32.1,
        "building_distance": 0.18,
        "vegetation": 0.19
      }
    },
    {
      "type": "Feature",
      "geometry": { "type": "Point", "coordinates": [78.5042, 17.4177] },
      "properties": {
        "id": "MS-005",
        "name": "Seasonal Water Patch",
        "confidence": 0.69,
        "water_persistence": 0.33,
        "days_persistent": 4,
        "ndwi": 0.28,
        "population_density": 0.38,
        "temperature": 27.9,
        "building_distance": 0.65,
        "vegetation": 0.61
      }
    }
  ]
}

